[{"OBJECT_NAME":"STARLINK-32373","OBJECT_ID":"2024-154W","EPOCH":"2026-03-09T21:27:39.045024","MEAN_MOTION":15.30190008,"ECCENTRICITY":0.00010077,"INCLINATION":53.1592,"RA_OF_ASC_NODE":283.0767,"ARG_OF_PERICENTER":104.6182,"MEAN_ANOMALY":255.493,"EPHEMERIS_TYPE":0,"CLASSIFICATION_TYPE":"U","NORAD_CAT_ID":60923,"ELEMENT_SET_NO":999,"REV_AT_EPOCH":8637,"BSTAR":1.812474e-5,"MEAN_MOTION_DOT":1.78e-6,"MEAN_MOTION_DDOT":0},{"OBJECT_NAME":"SCS-01 D","OBJECT_ID":"2025-100D","EPOCH":"2026-03-09T18:08:45.040704","MEAN_MOTION":15.31902149,"ECCENTRICITY":0.00063457,"INCLINATION":97.373,"RA_OF_ASC_NODE":145.4097,"ARG_OF_PERICENTER":266.2302,"MEAN_ANOMALY":93.8214,"EPHEMERIS_TYPE":0,"CLASSIFICATION_TYPE":"U","NORAD_CAT_ID":63985,"ELEMENT_SET_NO":999,"REV_AT_EPOCH":4562,"BSTAR":0.0010528181,"MEAN_MOTION_DOT":0.00032471,"MEAN_MOTION_DDOT":0}]
